EUTELSAT 21B            
1 38992U 12062B   25337.07802402  .00000150  00000+0  00000+0 0  9999
2 38992   0.0681 345.0491 0003378 280.0198 216.8005  1.00273660 47865
EUTELSAT 70B            
1 39020U 12069A   25337.01638228 -.00000024  00000+0  00000+0 0  9997
2 39020   0.0628   0.7557 0004339 240.9214 266.8292  1.00271587 47543
EUTELSAT 117 WEST A     
1 39122U 13012A   25337.17822703  .00000006  00000+0  00000+0 0  9998
2 39122   0.0369  55.6369 0003147 197.6268 126.3797  1.00271885 46462
EUTELSAT 7B             
1 39163U 13022A   25337.07516399  .00000067  00000+0  00000+0 0  9991
2 39163   0.0674 359.1654 0004160 311.7884 155.2781  1.00269211 45995
EXPRESS-AT1             
1 39612U 14010A   25337.12212830  .00000098  00000+0  00000+0 0  9991
2 39612   0.0160 295.0879 0000308 219.4551  17.6455  1.00269797 42856
EXPRESS-AT2             
1 39613U 14010B   25337.17270938 -.00000262  00000+0  00000+0 0  9994
2 39613   0.0176 309.1377 0001250 338.1326 347.0377  1.00271892 42537
EUTELSAT 3B             
1 39773U 14030A   25337.07438398  .00000039  00000+0  00000+0 0  9999
2 39773   0.0628   1.0980 0004776 226.5291 234.4171  1.00270722 42106
EUTELSAT 115 WEST B     
1 40425U 15010B   25336.97963543 -.00000006  00000+0  00000+0 0  9992
2 40425   0.0139 143.9078 0000339 285.8537 240.0881  1.00271793 39426
